name,source,collection_date,satellite_number,classification,launch_year,launch_number,launch_piece,epoch_year,epoch_day,inclination_deg,right_ascension_deg,eccentricity,argument_of_perigee_deg,mean_anomaly_deg,mean_motion,orbital_period_minutes,approximate_altitude_km,mean_motion_derivative,mean_motion_second_derivative,drag_term,element_set_number,revolution_number,line1,line2,category
STARLINK-2620,celestrak_active,2025-07-29T17:08:40.666851,48453,U,2021,40,AB,2025,209.98548059,53.0553,105.8686,0.0001344,93.7068,266.4075,15.06400026,95.59213855191476,0,2.908e-05,0.0,0.0021403,999,23291,1 48453U 21040AB  25209.98548059  .00002908  00000+0  21403-3 0  9998,2 48453  53.0553 105.8686 0001344  93.7068 266.4075 15.06400026232917,important
STARLINK-2654,celestrak_active,2025-07-29T17:08:40.666856,48454,U,2021,40,AC,2025,209.9818044,53.0553,105.8834,0.000122,90.211,269.9019,15.06404412,95.59186022883209,0,4.094e-05,0.0,0.0029357000000000003,999,23291,1 48454U 21040AC  25209.98180440  .00004094  00000+0  29357-3 0  9999,2 48454  53.0553 105.8834 0001220  90.2110 269.9019 15.06404412232915,important
STARLINK-2497,celestrak_active,2025-07-29T17:08:40.666862,48455,U,2021,40,AD,2025,210.4425367,53.0543,103.8154,0.000131,91.9829,268.131,15.06407512,95.59166351262859,0,-8.4e-07,0.0,0.00013284,999,23297,1 48455U 21040AD  25210.44253670 -.00000084  00000+0  13284-4 0  9998,2 48455  53.0543 103.8154 0001310  91.9829 268.1310 15.06407512232978,important
STARLINK-2698,celestrak_active,2025-07-29T17:08:40.666867,48458,U,2021,40,AG,2025,210.45130543,53.0526,108.8605,0.0001235,96.4033,263.7097,15.06402269,95.59199621731318,0,4.012e-05,0.0,0.0028806,999,23362,1 48458U 21040AG  25210.45130543  .00004012  00000+0  28806-3 0  9994,2 48458  53.0526 108.8605 0001235  96.4033 263.7097 15.06402269233621,important
STARLINK-2579,celestrak_active,2025-07-29T17:08:40.666873,48459,U,2021,40,AH,2025,210.04588047,53.0556,110.9524,0.0001381,87.9862,272.1285,15.06397032,95.59232854356819,0,1.906e-05,0.0,0.0014683,999,23285,1 48459U 21040AH  25210.04588047  .00001906  00000+0  14683-3 0  9993,2 48459  53.0556 110.9524 0001381  87.9862 272.1285 15.06397032232854,important
STARLINK-2582,celestrak_active,2025-07-29T17:08:40.666878,48460,U,2021,40,AJ,2025,210.10365382,53.056,98.8937,0.0003978,25.217,334.9019,15.2130511,94.6555684677875,0,0.00022544,0.0,0.010062,999,23353,1 48460U 21040AJ  25210.10365382  .00022544  00000+0  10062-2 0  9994,2 48460  53.0560  98.8937 0003978  25.2170 334.9019 15.21305110233535,important
STARLINK-2683,celestrak_active,2025-07-29T17:08:40.666889,48462,U,2021,40,AL,2025,210.46008692,53.0553,114.0169,0.0001381,81.2788,278.8357,15.06397597,95.59229269004204,0,3.1e-07,0.0,0.00020976,999,23284,1 48462U 21040AL  25210.46008692  .00000031  00000+0  20976-4 0  9997,2 48462  53.0553 114.0169 0001381  81.2788 278.8357 15.06397597232847,important
STARLINK-2686,celestrak_active,2025-07-29T17:08:40.666895,48464,U,2021,40,AN,2025,210.44531034,53.0552,113.7999,0.0001038,87.0543,273.0564,15.06385471,95.59306218242197,0,-1.971e-05,0.0,-0.001135,999,23284,1 48464U 21040AN  25210.44531034 -.00001971  00000+0 -11350-3 0  9999,2 48464  53.0552 113.7999 0001038  87.0543 273.0564 15.06385471232842,important
STARLINK-2681,celestrak_active,2025-07-29T17:08:40.666902,48465,U,2021,40,AP,2025,210.4563669,53.0526,113.7521,0.000143,81.621,278.4941,15.06398373,95.5922434470128,0,5.824e-05,0.0,0.0040956000000000005,999,23285,1 48465U 21040AP  25210.45636690  .00005824  00000+0  40956-3 0  9998,2 48465  53.0526 113.7521 0001430  81.6210 278.4941 15.06398373232856,important
STARLINK-2687,celestrak_active,2025-07-29T17:08:40.666907,48466,U,2021,40,AQ,2025,210.44162349,53.0536,113.8199,0.0001331,91.0575,269.0566,15.0639834,95.59224554110966,0,5.15e-06,0.0,0.0005344000000000001,999,23285,1 48466U 21040AQ  25210.44162349  .00000515  00000+0  53440-4 0  9998,2 48466  53.0536 113.8199 0001331  91.0575 269.0566 15.06398340232852,important
STARLINK-2659,celestrak_active,2025-07-29T17:08:40.666912,48467,U,2021,40,AR,2025,210.46742806,53.0559,113.7021,0.0001747,87.7553,272.3636,15.064011,95.59207039878024,0,2.17e-05,0.0,0.0016452,999,23285,1 48467U 21040AR  25210.46742806  .00002170  00000+0  16452-3 0  9993,2 48467  53.0559 113.7021 0001747  87.7553 272.3636 15.06401100232854,important
STARLINK-2685,celestrak_active,2025-07-29T17:08:40.666918,48468,U,2021,40,AS,2025,210.44899196,53.0544,113.7856,0.0001309,90.2916,269.8223,15.06400884,95.5920841055481,0,9.36e-06,0.0,0.0008172100000000001,999,23285,1 48468U 21040AS  25210.44899196  .00000936  00000+0  81721-4 0  9997,2 48468  53.0544 113.7856 0001309  90.2916 269.8223 15.06400884232852,important
STARLINK-2661,celestrak_active,2025-07-29T17:08:40.666923,48469,U,2021,40,AT,2025,209.99930898,53.0534,115.8043,0.0001325,89.174,270.9401,15.06405019,95.59182171046656,0,4.465e-05,0.0,0.0031838,999,23278,1 48469U 21040AT  25209.99930898  .00004465  00000+0  31838-3 0  9995,2 48469  53.0534 115.8043 0001325  89.1740 270.9401 15.06405019232781,important
STARLINK-2675,celestrak_active,2025-07-29T17:08:40.666928,48470,U,2021,40,AU,2025,210.0288362,53.0532,116.0174,0.0001303,93.1135,267.0003,15.06409297,95.59155024253677,0,3.738e-05,0.0,0.0026966,999,23277,1 48470U 21040AU  25210.02883620  .00003738  00000+0  26966-3 0  9991,2 48470  53.0532 116.0174 0001303  93.1135 267.0003 15.06409297232774,important
STARLINK-2684,celestrak_active,2025-07-29T17:08:40.666935,48471,U,2021,40,AV,2025,210.45267626,53.0541,113.7681,0.0001252,102.5688,257.5441,15.06401969,95.59201525446227,0,3.309e-05,0.0,0.0024092,999,23284,1 48471U 21040AV  25210.45267626  .00003309  00000+0  24092-3 0  9993,2 48471  53.0541 113.7681 0001252 102.5688 257.5441 15.06401969232849,important
STARLINK-2722,celestrak_active,2025-07-29T17:08:40.666942,48472,U,2021,40,AW,2025,210.43426005,53.0534,113.8523,0.0001507,103.0835,257.0322,15.06379178,95.59346152884754,0,-4.7e-06,0.0,-0.00012664,999,23283,1 48472U 21040AW  25210.43426005 -.00000470  00000+0 -12664-4 0  9991,2 48472  53.0534 113.8523 0001507 103.0835 257.0322 15.06379178232839,important
STARLINK-2658,celestrak_active,2025-07-29T17:08:40.666947,48473,U,2021,40,AX,2025,210.13936953,53.0542,115.1777,0.0001551,83.0402,277.0764,15.06457328,95.5885024577344,0,0.00042537,0.0,0.028530000000000003,999,23279,1 48473U 21040AX  25210.13936953  .00042537  00000+0  28530-2 0  9992,2 48473  53.0542 115.1777 0001551  83.0402 277.0764 15.06457328232792,important
STARLINK-2697,celestrak_active,2025-07-29T17:08:40.666953,48474,U,2021,40,AY,2025,210.43792696,53.0542,113.8339,0.0001205,83.9264,276.1862,15.06406768,95.59171072444359,0,-2.9e-07,0.0,0.00016953,999,23283,1 48474U 21040AY  25210.43792696 -.00000029  00000+0  16953-4 0  9999,2 48474  53.0542 113.8339 0001205  83.9264 276.1862 15.06406768232839,important
STARLINK-2619,celestrak_active,2025-07-29T17:08:40.666959,48475,U,2021,40,AZ,2025,210.08439559,53.0335,83.7976,0.0002745,214.7344,145.3479,15.36962696,93.6912785032227,0,0.00071302,0.0,0.019359,999,23323,1 48475U 21040AZ  25210.08439559  .00071302  00000+0  19359-2 0  9999,2 48475  53.0335  83.7976 0002745 214.7344 145.3479 15.36962696233231,important
STARLINK-2728,celestrak_active,2025-07-29T17:08:40.666964,48478,U,2021,40,BC,2025,210.15042949,53.0543,115.1278,0.0001393,92.4496,267.6652,15.06407361,95.59167309459264,0,4.08e-05,0.0,0.0029261,999,23279,1 48478U 21040BC  25210.15042949  .00004080  00000+0  29261-3 0  9996,2 48478  53.0543 115.1278 0001393  92.4496 267.6652 15.06407361232798,important
STARLINK-2755,celestrak_active,2025-07-29T17:08:40.666969,48479,U,2021,40,BD,2025,210.01405255,53.0535,115.7385,0.0001425,87.2908,272.8244,15.0640284,95.59195998329372,0,5.461e-05,0.0,0.003852,999,23277,1 48479U 21040BD  25210.01405255  .00005461  00000+0  38520-3 0  9997,2 48479  53.0535 115.7385 0001425  87.2908 272.8244 15.06402840232771,important
STARLINK-2706,celestrak_active,2025-07-29T17:08:40.666975,48481,U,2021,40,BF,2025,210.46652919,53.0531,123.9865,0.0001333,101.4287,258.6852,15.06402989,95.59195052818632,0,4.611e-05,0.0,0.0032822,999,23269,1 48481U 21040BF  25210.46652919  .00004611  00000+0  32822-3 0  9995,2 48481  53.0531 123.9865 0001333 101.4287 258.6852 15.06402989232693,important
STARLINK-2525,celestrak_active,2025-07-29T17:08:40.666980,48482,U,2021,40,BG,2025,210.49967721,53.0536,123.5591,0.0001444,93.123,266.9924,15.06402982,95.59195097238596,0,1.163e-05,0.0,0.00096953,999,23270,1 48482U 21040BG  25210.49967721  .00001163  00000+0  96953-4 0  9994,2 48482  53.0536 123.5591 0001444  93.1230 266.9924 15.06402982232706,important
STARLINK-2531,celestrak_active,2025-07-29T17:08:40.666987,48483,U,2021,40,BH,2025,210.16424185,53.0546,125.0612,0.0001405,91.5575,268.5575,15.06410864,95.59145080621245,0,2.156e-05,0.0,0.0016356,999,23265,1 48483U 21040BH  25210.16424185  .00002156  00000+0  16356-3 0  9992,2 48483  53.0546 125.0612 0001405  91.5575 268.5575 15.06410864232652,important
STARLINK-2696,celestrak_active,2025-07-29T17:08:40.666993,48484,U,2021,40,BJ,2025,210.33025735,53.042,65.6645,0.00014,225.4862,134.6034,15.55488854,92.57539816482671,0,0.00194232,0.0,0.027341000000000004,999,23351,1 48484U 21040BJ  25210.33025735  .00194232  00000+0  27341-2 0  9992,2 48484  53.0420  65.6645 0001400 225.4862 134.6034 15.55488854233518,important
STARLINK-2500,celestrak_active,2025-07-29T17:08:40.666998,48485,U,2021,40,BK,2025,210.038933,53.0543,125.6271,0.0001527,93.5796,266.5368,15.06413538,95.59128112402824,0,1.723e-05,0.0,0.001345,999,23263,1 48485U 21040BK  25210.03893300  .00001723  00000+0  13450-3 0  9990,2 48485  53.0543 125.6271 0001527  93.5796 266.5368 15.06413538232637,important
